STARLINK-32403          
1 61629U 24191J   26068.27755102  .00000106  00000+0  13365-4 0  9990
2 61629  43.0031 156.8087 0001119 233.4730 126.6018 15.27567609 77473
TEVEL2-3                
1 63218U 25052J   26068.64540225  .00020365  00000+0  69446-3 0  9991
2 63218  97.3994 324.7775 0004761 105.7353 254.4413 15.30377031 54855
